NORAD_CAT_ID,OBJECT_NAME,OBJECT_TYPE,EPOCH,MEAN_MOTION,ECCENTRICITY,INCLINATION,RA_OF_ASC_NODE,ARG_OF_PERICENTER,MEAN_ANOMALY,BSTAR,MEAN_MOTION_DOT,MEAN_MOTION_DDOT,TLE_LINE0,TLE_LINE1,TLE_LINE2,SEMIMAJOR_AXIS,PERIOD,APOGEE,PERIGEE,DECAYED
53397.0,STARLINK-4515,PAYLOAD,2024-07-05 04:13:02,15.08846384,9.87e-05,53.2182,353.804,78.7836,281.3267,0.00015403,2.165e-05,0.0,0 STARLINK-4515,1 53397U 22097K   24187.17572363  .00002165  00000-0  15403-3 0  9993,2 53397  53.2182 353.8040 0000987  78.7836 281.3267 15.08846384105558,6917.861,95.437,540.409,539.043,0.0
53397.0,STARLINK-4515,PAYLOAD,2024-07-05 20:06:54,15.08842755,9.79e-05,53.2178,350.829,77.3374,282.7728,0.00013132,1.803e-05,0.0,0 STARLINK-4515,1 53397U 22097K   24187.83812761  .00001803  00000-0  13132-3 0  9990,2 53397  53.2178 350.8290 0000979  77.3374 282.7728 15.08842755105656,6917.872,95.437,540.414,539.06,0.0
53397.0,STARLINK-4515,PAYLOAD,2024-07-06 10:25:22,15.08844423,0.000208,53.2182,348.1572,75.5147,284.6076,0.00021023,3.06e-05,0.0,0 STARLINK-4515,1 53397U 22097K   24188.43428857  .00003060  00000-0  21023-3 0  9991,2 53397  53.2182 348.1572 0002080  75.5147 284.6076 15.08844423106233,6917.867,95.437,541.171,538.293,0.0
53397.0,STARLINK-4515,PAYLOAD,2024-07-06 18:22:18,15.08837752,9.45e-05,53.2173,346.6676,81.035,279.0749,1.2196e-06,-2.68e-06,0.0,0 STARLINK-4515,1 53397U 22097K   24188.76548981 -.00000268  00000-0  12196-5 0  9999,2 53397  53.2173 346.6676 0000945  81.0350 279.0749 15.08837752105799,6917.887,95.438,540.406,539.099,0.0
53397.0,STARLINK-4515,PAYLOAD,2024-07-07 10:16:09,15.088398,0.0001104,53.2184,343.6934,88.0018,272.1101,3.5968e-05,2.85e-06,0.0,0 STARLINK-4515,1 53397U 22097K   24189.42789111  .00000285  00000-0  35968-4 0  9994,2 53397  53.2184 343.6934 0001104  88.0018 272.1101 15.08839800106389,6917.881,95.438,540.51,538.982,0.0
53397.0,STARLINK-4515,PAYLOAD,2024-07-08 03:45:23,15.08846956,0.0001049,53.219,340.4219,103.1637,256.9473,0.00013698,1.893e-05,0.0,0 STARLINK-4515,1 53397U 22097K   24190.15652731  .00001893  00000-0  13698-3 0  9994,2 53397  53.2190 340.4219 0001049 103.1637 256.9473 15.08846956106002,6917.859,95.437,540.45,538.998,0.0
53397.0,STARLINK-4515,PAYLOAD,2024-07-08 19:39:15,15.08842078,0.0001111,53.2187,337.4479,103.5404,256.5712,0.00011669,1.57e-05,0.0,0 STARLINK-4515,1 53397U 22097K   24190.81893127  .00001570  00000-0  11669-3 0  9991,2 53397  53.2187 337.4479 0001111 103.5404 256.5712 15.08842078106102,6917.874,95.437,540.508,538.97,0.0
53397.0,STARLINK-4515,PAYLOAD,2024-07-09 14:43:53,15.0883908,0.0001061,53.2184,333.8783,110.3393,249.7713,0.00018012,2.58e-05,0.0,0 STARLINK-4515,1 53397U 22097K   24191.61381385  .00002580  00000-0  18012-3 0  9999,2 53397  53.2184 333.8783 0001061 110.3393 249.7713 15.08839080106715,6917.883,95.438,540.482,539.014,0.0
53397.0,STARLINK-4515,PAYLOAD,2024-07-09 16:19:16,15.08840854,0.0001165,53.2191,333.5811,115.215,244.8963,7.9968e-05,9.85e-06,0.0,0 STARLINK-4515,1 53397U 22097K   24191.68005276  .00000985  00000-0  79968-4 0  9993,2 53397  53.2191 333.5811 0001165 115.2150 244.8963 15.08840854106727,6917.878,95.438,540.549,538.937,0.0
53397.0,STARLINK-4515,PAYLOAD,2024-07-10 09:48:31,15.08838073,0.0001042,53.2185,330.3128,105.4001,254.7106,0.00012078,1.635e-05,0.0,0 STARLINK-4515,1 53397U 22097K   24192.40869532  .00001635  00000-0  12078-3 0  9998,2 53397  53.2185 330.3128 0001042 105.4001 254.7106 15.08838073106343,6917.886,95.438,540.472,539.03,0.0
53397.0,STARLINK-4515,PAYLOAD,2024-07-11 14:25:27,15.08841125,0.0001016,53.2183,324.9643,94.8233,265.2875,8.3521e-05,1.042e-05,0.0,0 STARLINK-4515,1 53397U 22097K   24193.60101448  .00001042  00000-0  83521-4 0  9990,2 53397  53.2183 324.9643 0001016  94.8233 265.2875 15.08841125107018,6917.877,95.437,540.445,539.039,0.0
53397.0,STARLINK-4515,PAYLOAD,2024-07-12 01:33:08,15.08852561,8.89e-05,53.2164,322.8822,83.2229,276.8864,0.00022755,3.337e-05,0.0,0 STARLINK-4515,1 53397U 22097K   24194.06468707  .00003337  00000-0  22755-3 0  9995,2 53397  53.2164 322.8822 0000889  83.2229 276.8864 15.08852561106591,6917.842,95.437,540.322,539.092,0.0
53397.0,STARLINK-4515,PAYLOAD,2024-07-12 12:40:52,15.08830804,0.0001445,53.2174,320.7958,82.4341,277.6815,-6.3428e-05,-1.297e-05,0.0,0 STARLINK-4515,1 53397U 22097K   24194.52838098 -.00001297  00000-0 -63428-4 0  9998,2 53397  53.2174 320.7958 0001445  82.4341 277.6815 15.08830804106663,6917.908,95.438,540.773,538.774,0.0
53397.0,STARLINK-4515,PAYLOAD,2024-07-12 14:16:15,15.0882923,0.0001205,53.2178,320.4994,86.8184,273.2946,-8.5795e-05,-1.653e-05,0.0,0 STARLINK-4515,1 53397U 22097K   24194.59462149 -.00001653  00000-0 -85795-4 0  9992,2 53397  53.2178 320.4994 0001205  86.8184 273.2946 15.08829230107165,6917.913,95.438,540.612,538.945,0.0
53397.0,STARLINK-4515,PAYLOAD,2024-07-12 17:27:01,15.08839794,0.0001039,53.2166,319.9083,101.1972,258.9137,8.9682e-05,1.14e-05,0.0,0 STARLINK-4515,1 53397U 22097K   24194.72709688  .00001140  00000-0  89682-4 0  9997,2 53397  53.2166 319.9083 0001039 101.1972 258.9137 15.08839794106690,6917.881,95.438,540.465,539.027,0.0
53397.0,STARLINK-4515,PAYLOAD,2024-07-13 12:31:39,15.08834641,0.000136,53.2177,316.34,82.3812,277.7335,3.9122e-05,3.35e-06,0.0,0 STARLINK-4515,1 53397U 22097K   24195.52198250  .00000335  00000-0  39122-4 0  9992,2 53397  53.2177 316.3400 0001360  82.3812 277.7335 15.08834641106815,6917.897,95.438,540.703,538.821,0.0
53397.0,STARLINK-4515,PAYLOAD,2024-07-13 14:07:02,15.08834741,0.0001235,53.217,316.0425,84.3794,275.7339,4.0966e-05,3.64e-06,0.0,0 STARLINK-4515,1 53397U 22097K   24195.58822187  .00000364  00000-0  40966-4 0  9991,2 53397  53.2170 316.0425 0001235  84.3794 275.7339 15.08834741107313,6917.896,95.438,540.616,538.907,0.0
53397.0,STARLINK-4515,PAYLOAD,2024-07-13 15:42:25,15.08838401,0.0001071,53.2162,315.7446,83.1904,276.921,8.3001e-05,1.033e-05,0.0,0 STARLINK-4515,1 53397U 22097K   24195.65445871  .00001033  00000-0  83001-4 0  9991,2 53397  53.2162 315.7446 0001071  83.1904 276.9210 15.08838401107320,6917.885,95.438,540.491,539.009,0.0
53397.0,STARLINK-4515,PAYLOAD,2024-07-14 01:14:43,15.08852964,0.0001134,53.2172,313.9603,82.406,277.7061,0.00040945,6.237e-05,0.0,0 STARLINK-4515,1 53397U 22097K   24196.05189460  .00006237  00000-0  40945-3 0  9995,2 53397  53.2172 313.9603 0001134  82.4060 277.7061 15.08852964106895,6917.841,95.437,540.49,538.921,0.0
53397.0,STARLINK-4515,PAYLOAD,2024-07-14 12:22:25,15.08845905,0.0001338,53.217,311.8762,107.2229,252.891,0.00032349,4.865e-05,0.0,0 STARLINK-4515,1 53397U 22097K   24196.51557865  .00004865  00000-0  32349-3 0  9998,2 53397  53.2170 311.8762 0001338 107.2229 252.8910 15.08845905106967,6917.862,95.437,540.653,538.802,0.0
53397.0,STARLINK-4515,PAYLOAD,2024-07-14 13:57:49,15.08844999,0.0001589,53.2169,311.5772,97.2608,262.8565,0.00026008,3.854e-05,0.0,0 STARLINK-4515,1 53397U 22097K   24196.58181897  .00003854  00000-0  26008-3 0  9995,2 53397  53.2169 311.5772 0001589  97.2608 262.8565 15.08844999107465,6917.865,95.437,540.829,538.631,0.0
53397.0,STARLINK-4515,PAYLOAD,2024-07-14 17:08:35,15.08847538,0.0001544,53.2169,310.9835,90.4103,269.7067,0.00029242,4.37e-05,0.0,0 STARLINK-4515,1 53397U 22097K   24196.71429883  .00004370  00000-0  29242-3 0  9997,2 53397  53.2169 310.9835 0001544  90.4103 269.7067 15.08847538107481,6917.857,95.437,540.79,538.654,0.0
53397.0,STARLINK-4515,PAYLOAD,2024-07-15 12:13:13,15.08838873,0.0001691,53.2164,307.418,88.8713,271.2473,-0.00010038,-1.885e-05,0.0,0 STARLINK-4515,1 53397U 22097K   24197.50918006 -.00001885  00000-0 -10038-3 0  9998,2 53397  53.2164 307.4180 0001691  88.8713 271.2473 15.08838873107112,6917.884,95.438,540.919,538.579,0.0
53397.0,STARLINK-4515,PAYLOAD,2024-07-15 13:48:36,15.08837506,0.0001436,53.2167,307.1181,101.3992,258.7162,4.0568e-05,3.58e-06,0.0,0 STARLINK-4515,1 53397U 22097K   24197.57541908  .00000358  00000-0  40568-4 0  9992,2 53397  53.2167 307.1181 0001436 101.3992 258.7162 15.08837506107612,6917.888,95.438,540.746,538.76,0.0
53397.0,STARLINK-4515,PAYLOAD,2024-07-16 13:39:23,15.0884628,0.0001673,53.2175,302.6576,108.9637,251.1536,0.00037993,5.765e-05,0.0,0 STARLINK-4515,1 53397U 22097K   24198.56901806  .00005765  00000-0  37993-3 0  9993,2 53397  53.2175 302.6576 0001673 108.9637 251.1536 15.08846280107274,6917.861,95.437,540.884,538.569,0.0
53397.0,STARLINK-4515,PAYLOAD,2024-07-17 13:30:10,15.08843112,0.0001374,53.2168,298.2027,75.5966,284.5179,0.00020118,2.916e-05,0.0,0 STARLINK-4515,1 53397U 22097K   24199.56262155  .00002916  00000-0  20118-3 0  9997,2 53397  53.2168 298.2027 0001374  75.5966 284.5179 15.08843112107420,6917.871,95.437,540.686,538.785,0.0
53397.0,STARLINK-4515,PAYLOAD,2024-07-17 23:02:28,15.08857652,0.0001343,53.2183,296.4131,79.0936,281.0207,0.00051219,7.877e-05,0.0,0 STARLINK-4515,1 53397U 22097K   24199.96005553  .00007877  00000-0  51219-3 0  9995,2 53397  53.2183 296.4131 0001343  79.0936 281.0207 15.08857652107489,6917.826,95.436,540.62,538.762,0.0
53397.0,STARLINK-4515,PAYLOAD,2024-07-18 11:45:34,15.08837244,0.0001623,53.2181,294.0365,98.7831,261.3345,4.2976e-05,3.96e-06,0.0,0 STARLINK-4515,1 53397U 22097K   24200.48998271  .00000396  00000-0  42976-4 0  9993,2 53397  53.2181 294.0365 0001623  98.7831 261.3345 15.08837244107561,6917.889,95.438,540.877,538.631,0.0
53397.0,STARLINK-4515,PAYLOAD,2024-07-19 13:11:45,15.08833662,0.0001702,53.2186,289.2808,112.1257,247.9916,0.00025924,3.839e-05,0.0,0 STARLINK-4515,1 53397U 22097K   24201.54982943  .00003839  00000-0  25924-3 0  9998,2 53397  53.2186 289.2808 0001702 112.1257 247.9916 15.08833662107727,6917.9,95.438,540.942,538.587,0.0
53397.0,STARLINK-4515,PAYLOAD,2024-07-20 11:27:09,15.0883771,0.0001727,53.2183,285.1168,94.7904,265.3286,0.00015664,2.206e-05,0.0,0 STARLINK-4515,1 53397U 22097K   24202.47719047  .00002206  00000-0  15664-3 0  9991,2 53397  53.2183 285.1168 0001727  94.7904 265.3286 15.08837710108351,6917.887,95.438,540.947,538.558,0.0
